{"type": "FeatureCollection", "features": [ {"type": "Feature", "properties": {"norad_id": 66584, "name": "STARLINK-35939", "group": "last-30-days", "lat": 32.734830246139, "lon": 78.79516469587304, "alt_km": 433.9104529718161, "timestamp": "2025-12-27T09:28:55.181664+00:00", "meta": {"OBJECT_NAME": "STARLINK-35939", "OBJECT_ID": "2025-268AD", "EPOCH": "2025-12-27T04:00:01.998720", "MEAN_MOTION": 15.43533528, "ECCENTRICITY": 6.73e-05, "INCLINATION": 43.0004, "RA_OF_ASC_NODE": 36.498, "ARG_OF_PERICENTER": 294.5171, "MEAN_ANOMALY": 287.8049, "EPHEMERIS_TYPE": 0, "CLASSIFICATION_TYPE": "U", "NORAD_CAT_ID": 66584, "ELEMENT_SET_NO": 999, "REV_AT_EPOCH": 605, "BSTAR": -0.050363, "MEAN_MOTION_DOT": -0.02054725, "MEAN_MOTION_DDOT": 0}, "tle": {"line1": "1 66584U 25268AD  25361.16668980 -.02054725  00000+0 -50363-1 0  9997", "line2": "2 66584  43.0004  36.4980 0000673 294.5171 287.8049 15.43533528  6055"}}, "geometry": {"type": "Point", "coordinates": [78.79516469587304, 32.734830246139]}}, {"type": "Feature", "properties": {"norad_id": 66585, "name": "STARLINK-35963", "group": "last-30-days", "lat": -11.13611279051783, "lon": -132.1010849875161, "alt_km": 479.21513652260546, "timestamp": "2025-12-27T09:28:55.181674+00:00", "meta": {"OBJECT_NAME": "STARLINK-35963", "OBJECT_ID": "2025-268AE", "EPOCH": "2025-12-27T04:00:01.998720", "MEAN_MOTION": 15.30467363, "ECCENTRICITY": 8.48e-05, "INCLINATION": 43.0013, "RA_OF_ASC_NODE": 36.9993, "ARG_OF_PERICENTER": 301.4132, "MEAN_ANOMALY": 75.6064, "EPHEMERIS_TYPE": 0, "CLASSIFICATION_TYPE": "U", "NORAD_CAT_ID": 66585, "ELEMENT_SET_NO": 999, "REV_AT_EPOCH": 604, "BSTAR": -0.088805, "MEAN_MOTION_DOT": -0.02368842, "MEAN_MOTION_DDOT": 0}, "tle": {"line1": "1 66585U 25268AE  25361.16668980 -.02368842  00000+0 -88805-1 0  9998", "line2": "2 66585  43.0013  36.9993 0000848 301.4132  75.6064 15.30467363  6042"}}, "geometry": {"type": "Point", "coordinates": [-132.1010849875161, -11.13611279051783]}}, {"type": "Feature", "properties": {"norad_id": 66586, "name": "TJS-21", "group": "last-30-days", "lat": 63.17149991437008, "lon": -114.12310279030089, "alt_km": 38194.073999650325, "timestamp": "2025-12-27T09:28:55.181688+00:00", "meta": {"OBJECT_NAME": "TJS-21", "OBJECT_ID": "2025-269A", "EPOCH": "2025-12-18T16:58:10.473888", "MEAN_MOTION": 2.00580748, "ECCENTRICITY": 0.6806869, "INCLINATION": 63.2733, "RA_OF_ASC_NODE": 161.7218, "ARG_OF_PERICENTER": 269.7428, "MEAN_ANOMALY": 18.6663, "EPHEMERIS_TYPE": 0, "CLASSIFICATION_TYPE": "U", "NORAD_CAT_ID": 66586, "ELEMENT_SET_NO": 999, "REV_AT_EPOCH": 55, "BSTAR": -0.059507049, "MEAN_MOTION_DOT": 1.084e-05, "MEAN_MOTION_DDOT": 0}, "tle": {"line1": "1 66586U 25269A   25352.70706567  .00001084  00000+0 -59507-1 0  9990", "line2": "2 66586  63.2733 161.7218 6806869 269.7428  18.6663  2.00580748   558"}}, "geometry": {"type": "Point", "coordinates": [-114.12310279030089, 63.17149991437008]}}, {"type": "Feature", "properties": {"norad_id": 66588, "name": "STARLINK-36076", "group": "last-30-days", "lat": 22.90595208232026, "lon": 135.30457232815738, "alt_km": 440.54676246040435, "timestamp": "2025-12-27T09:28:55.181704+00:00", "meta": {"OBJECT_NAME": "STARLINK-36076", "OBJECT_ID": "2025-270A", "EPOCH": "2025-12-26T17:46:23.070720", "MEAN_MOTION": 15.40706304, "ECCENTRICITY": 0.00010051, "INCLINATION": 42.9985, "RA_OF_ASC_NODE": 112.1115, "ARG_OF_PERICENTER": 274.9025, "MEAN_ANOMALY": 85.1717, "EPHEMERIS_TYPE": 0, "CLASSIFICATION_TYPE": "U", "NORAD_CAT_ID": 66588, "ELEMENT_SET_NO": 999, "REV_AT_EPOCH": 650, "BSTAR": 0.00091499933, "MEAN_MOTION_DOT": 0.00038117, "MEAN_MOTION_DDOT": 0}, "tle": {"line1": "1 66588U 25270A   25360.74054480  .00038117  00000+0  91500-3 0  9994", "line2": "2 66588  42.9985 112.1115 0001005 274.9025  85.1717 15.40706304  6509"}}, "geometry": {"type": "Point", "coordinates": [135.30457232815738, 22.90595208232026]}}, {"type": "Feature", "properties": {"norad_id": 66589, "name": "STARLINK-35447", "group": "last-30-days", "lat": 28.93707942839965, "lon": -108.29941904601523, "alt_km": 439.643594516162, "timestamp": "2025-12-27T09:28:55.181715+00:00", "meta": {"OBJECT_NAME": "STARLINK-35447", "OBJECT_ID": "2025-270B", "EPOCH": "2025-12-25T14:53:33.760896", "MEAN_MOTION": 15.4069884, "ECCENTRICITY": 0.0001173, "INCLINATION": 43.0008, "RA_OF_ASC_NODE": 118.3206, "ARG_OF_PERICENTER": 257.0782, "MEAN_ANOMALY": 102.9943, "EPHEMERIS_TYPE": 0, "CLASSIFICATION_TYPE": "U", "NORAD_CAT_ID": 66589, "ELEMENT_SET_NO": 999, "REV_AT_EPOCH": 644, "BSTAR": 0.00080611, "MEAN_MOTION_DOT": 0.00033516, "MEAN_MOTION_DDOT": 0}, "tle": {"line1": "1 66589U 25270B   25359.62052964  .00033516  00000+0  80611-3 0  9994", "line2": "2 66589  43.0008 118.3206 0001173 257.0782 102.9943 15.40698840  6442"}}, "geometry": {"type": "Point", "coordinates": [-108.29941904601523, 28.93707942839965]}}, {"type": "Feature", "properties": {"norad_id": 66590, "name": "STARLINK-35429", "group": "last-30-days", "lat": -27.324859398085973, "lon": -38.446765374514364, "alt_km": 445.27950972793315, "timestamp": "2025-12-27T09:28:55.181726+00:00", "meta": {"OBJECT_NAME": "STARLINK-35429", "OBJECT_ID": "2025-270C", "EPOCH": "2025-12-25T17:37:41.590560", "MEAN_MOTION": 15.40721997, "ECCENTRICITY": 0.0001639, "INCLINATION": 43.002, "RA_OF_ASC_NODE": 117.4547, "ARG_OF_PERICENTER": 273.6487, "MEAN_ANOMALY": 86.4182, "EPHEMERIS_TYPE": 0, "CLASSIFICATION_TYPE": "U", "NORAD_CAT_ID": 66590, "ELEMENT_SET_NO": 999, "REV_AT_EPOCH": 646, "BSTAR": 0.001733211, "MEAN_MOTION_DOT": 0.00072845, "MEAN_MOTION_DDOT": 0}, "tle": {"line1": "1 66590U 25270C   25359.73450915  .00072845  00000+0  17332-2 0  9993", "line2": "2 66590  43.0020 117.4547 0001639 273.6487  86.4182 15.40721997  6462"}}, "geometry": {"type": "Point", "coordinates": [-38.446765374514364, -27.324859398085973]}}, {"type": "Feature", "properties": {"norad_id": 66591, "name": "STARLINK-36058", "group": "last-30-days", "lat": -32.16771196433624, "lon": 65.2360489090259, "alt_km": 444.82245661606703, "timestamp": "2025-12-27T09:28:55.181738+00:00", "meta": {"OBJECT_NAME": "STARLINK-36058", "OBJECT_ID": "2025-270D", "EPOCH": "2025-12-26T15:02:03.164928", "MEAN_MOTION": 15.40738813, "ECCENTRICITY": 0.00026937, "INCLINATION": 43.0054, "RA_OF_ASC_NODE": 112.1064, "ARG_OF_PERICENTER": 284.3087, "MEAN_ANOMALY": 75.747, "EPHEMERIS_TYPE": 0, "CLASSIFICATION_TYPE": "U", "NORAD_CAT_ID": 66591, "ELEMENT_SET_NO": 999, "REV_AT_EPOCH": 649, "BSTAR": 0.0011610165, "MEAN_MOTION_DOT": 0.0004857, "MEAN_MOTION_DDOT": 0}, "tle": {"line1": "1 66591U 25270D   25360.62642552  .00048570  00000+0  11610-2 0  9995", "line2": "2 66591  43.0054 112.1064 0002693 284.3087  75.7470 15.40738813  6491"}}, "geometry": {"type": "Point", "coordinates": [65.2360489090259, -32.16771196433624]}}, {"type": "Feature", "properties": {"norad_id": 66592, "name": "STARLINK-36066", "group": "last-30-days", "lat": 42.77753988941138, "lon": -168.61394948138746, "alt_km": 437.89282373742117, "timestamp": "2025-12-27T09:28:55.181749+00:00", "meta": {"OBJECT_NAME": "STARLINK-36066", "OBJECT_ID": "2025-270E", "EPOCH": "2025-12-26T08:13:21.289728", "MEAN_MOTION": 15.40749213, "ECCENTRICITY": 0.0001723, "INCLINATION": 43.0012, "RA_OF_ASC_NODE": 114.282, "ARG_OF_PERICENTER": 268.5662, "MEAN_ANOMALY": 91.4997, "EPHEMERIS_TYPE": 0, "CLASSIFICATION_TYPE": "U", "NORAD_CAT_ID": 66592, "ELEMENT_SET_NO": 999, "REV_AT_EPOCH": 634, "BSTAR": 0.0013745, "MEAN_MOTION_DOT": 0.00057643, "MEAN_MOTION_DDOT": 0}, "tle": {"line1": "1 66592U 25270E   25360.34260752  .00057643  00000+0  13745-2 0  9995", "line2": "2 66592  43.0012 114.2820 0001723 268.5662  91.4997 15.40749213  6344"}}, "geometry": {"type": "Point", "coordinates": [-168.61394948138746, 42.77753988941138]}}, {"type": "Feature", "properties": {"norad_id": 66593, "name": "STARLINK-36031", "group": "last-30-days", "lat": 5.511465008911405, "lon": -77.93918407698631, "alt_km": 443.53717006634633, "timestamp": "2025-12-27T09:28:55.181759+00:00", "meta": {"OBJECT_NAME": "STARLINK-36031", "OBJECT_ID": "2025-270F", "EPOCH": "2025-12-26T17:10:54.853824", "MEAN_MOTION": 15.40744951, "ECCENTRICITY": 0.00017656, "INCLINATION": 43.0007, "RA_OF_ASC_NODE": 111.9193, "ARG_OF_PERICENTER": 34.9432, "MEAN_ANOMALY": 325.154, "EPHEMERIS_TYPE": 0, "CLASSIFICATION_TYPE": "U", "NORAD_CAT_ID": 66593, "ELEMENT_SET_NO": 999, "REV_AT_EPOCH": 650, "BSTAR": 0.0012375744, "MEAN_MOTION_DOT": 0.00051823, "MEAN_MOTION_DDOT": 0}, "tle": {"line1": "1 66593U 25270F   25360.71591266  .00051823  00000+0  12376-2 0  9997", "line2": "2 66593  43.0007 111.9193 0001765  34.9432 325.1540 15.40744951  6505"}}, "geometry": {"type": "Point", "coordinates": [-77.93918407698631, 5.511465008911405]}}, {"type": "Feature", "properties": {"norad_id": 66594, "name": "STARLINK-36032", "group": "last-30-days", "lat": -42.967041984685125, "lon": 19.410168009642504, "alt_km": 446.21380270108966, "timestamp": "2025-12-27T09:28:55.181769+00:00", "meta": {"OBJECT_NAME": "STARLINK-36032", "OBJECT_ID": "2025-270G", "EPOCH": "2025-12-27T00:31:51.155904", "MEAN_MOTION": 15.40705976, "ECCENTRICITY": 0.0001581, "INCLINATION": 42.9991, "RA_OF_ASC_NODE": 109.9145, "ARG_OF_PERICENTER": 273.7996, "MEAN_ANOMALY": 86.2679, "EPHEMERIS_TYPE": 0, "CLASSIFICATION_TYPE": "U", "NORAD_CAT_ID": 66594, "ELEMENT_SET_NO": 999, "REV_AT_EPOCH": 636, "BSTAR": 0.0012137, "MEAN_MOTION_DOT": 0.00050743, "MEAN_MOTION_DDOT": 0}, "tle": {"line1": "1 66594U 25270G   25361.02211986  .00050743  00000+0  12137-2 0  9996", "line2": "2 66594  42.9991 109.9145 0001581 273.7996  86.2679 15.40705976  6360"}}, "geometry": {"type": "Point", "coordinates": [19.410168009642504, -42.967041984685125]}}]}